0 THORAD AGENA D DEB
1 05061U 70025JF  13282.38788925  .00015747  00000-0  31343-2 0  1084
2 05061 099.7088 083.2450 0022719 133.5722 255.7266 14.62002319230366
0 THORAD AGENA D DEB
1 05061U 70025JF  13283.14510204  .00013221  00000-0  26339-2 0  1097
2 05061 099.7088 084.1334 0022693 131.3753 281.0459 14.62015349230473
0 THORAD AGENA D DEB
1 05061U 70025JF  13283.75114417  .00019755  00000-0  39250-2 0  1106
2 05061 099.7087 084.8426 0022953 129.5567 230.8154 14.62026813230564
0 THORAD AGENA D DEB
1 05061U 70025JF  13285.75766986  .00010763  00000-0  21449-2 0  1114
2 05061 099.7080 087.1988 0022504 123.5982 351.8765 14.62067305230858
0 THORAD AGENA D DEB
1 05061U 70025JF  13287.12179287  .00011191  00000-0  22285-2 0  1125
2 05061 099.7076 088.7996 0022403 119.5146 331.9430 14.62092243231054
0 THORAD AGENA D DEB
1 05061U 70025JF  13288.14786895  .00019032  00000-0  37742-2 0  1134
2 05061 099.7075 090.0037 0022319 116.3287 332.9014 14.62122107231201
0 THORAD AGENA D DEB
1 05061U 70025JF  13289.31107597  .00015541  00000-0  30840-2 0  1144
2 05061 099.7074 091.3689 0022224 112.7645 335.7727 14.62150809231370
0 THORAD AGENA D DEB
1 05061U 70025JF  13290.26887200  .00015671  00000-0  31082-2 0  1150
2 05061 099.7075 092.4930 0022162 109.7955 337.5210 14.62172159231518
0 THORAD AGENA D DEB
1 05061U 70025JF  13291.42574984  .00013541  00000-0  26866-2 0  1160
2 05061 099.7079 093.8501 0022057 106.1452 307.3903 14.62202914231682
0 THORAD AGENA D DEB
1 05061U 70025JF  13292.45351914  .00013152  00000-0  26085-2 0  1172
2 05061 099.7081 095.0567 0021996 102.9916 317.6356 14.62227967231839
0 THORAD AGENA D DEB
1 05061U 70025JF  13294.10183317  .00014066  00000-0  27862-2 0  1186
2 05061 099.7085 096.9916 0021975 098.0697 354.5237 14.62264307232073
0 THORAD AGENA D DEB
1 05061U 70025JF  13295.18934493  .00014878  00000-0  29446-2 0  1196
2 05061 099.7086 098.2682 0021887 094.5864 319.6502 14.62286549232235
